[{"OBJECT_NAME":"JILIN-1 GAOFEN 03D54","OBJECT_ID":"2022-155D","EPOCH":"2026-03-09T23:37:20.443296","MEAN_MOTION":15.68305206,"ECCENTRICITY":0.00027254,"INCLINATION":97.6021,"RA_OF_ASC_NODE":211.7883,"ARG_OF_PERICENTER":319.8773,"MEAN_ANOMALY":40.2286,"EPHEMERIS_TYPE":0,"CLASSIFICATION_TYPE":"U","NORAD_CAT_ID":54254,"ELEMENT_SET_NO":999,"REV_AT_EPOCH":18463,"BSTAR":0.00092591646,"MEAN_MOTION_DOT":0.00104667,"MEAN_MOTION_DDOT":0},{"OBJECT_NAME":"STARLINK-11124 [DTC]","OBJECT_ID":"2024-107H","EPOCH":"2026-03-09T22:22:10.406496","MEAN_MOTION":15.69720659,"ECCENTRICITY":8.604e-5,"INCLINATION":53.1594,"RA_OF_ASC_NODE":250.0897,"ARG_OF_PERICENTER":95.0284,"MEAN_ANOMALY":265.0832,"EPHEMERIS_TYPE":0,"CLASSIFICATION_TYPE":"U","NORAD_CAT_ID":59952,"ELEMENT_SET_NO":999,"REV_AT_EPOCH":10225,"BSTAR":-1.8987869e-5,"MEAN_MOTION_DOT":-2.889e-5,"MEAN_MOTION_DDOT":0}]
